NORAD_CAT_ID,OBJECT_NAME,OBJECT_TYPE,EPOCH,MEAN_MOTION,ECCENTRICITY,INCLINATION,RA_OF_ASC_NODE,ARG_OF_PERICENTER,MEAN_ANOMALY,BSTAR,MEAN_MOTION_DOT,MEAN_MOTION_DDOT,TLE_LINE0,TLE_LINE1,TLE_LINE2,SEMIMAJOR_AXIS,PERIOD,APOGEE,PERIGEE,DECAYED
49433.0,STARLINK-3079,PAYLOAD,2023-01-15 13:35:26,15.08849027,0.0001813,53.216,327.7456,50.5017,309.6135,0.00021109,3.074e-05,0.0,0 STARLINK-3079,1 49433U 21104AB  23015.56627438  .00003074  00000-0  21109-3 0  9993,2 49433  53.2160 327.7456 0001813  50.5017 309.6135 15.08849027 66527,6917.853,95.437,540.972,538.464,0.0
49433.0,STARLINK-3079,PAYLOAD,2023-01-15 19:56:58,15.08843627,0.0001963,53.2143,326.5578,57.0083,303.1097,9.2865e-05,1.19e-05,0.0,0 STARLINK-3079,1 49433U 21104AB  23015.83123622  .00001190  00000-0  92865-4 0  9994,2 49433  53.2143 326.5578 0001963  57.0083 303.1097 15.08843627 66561,6917.869000000001,95.437,541.092,538.376,0.0
49433.0,STARLINK-3079,PAYLOAD,2023-01-16 03:53:53,15.08865847,0.0002211999999999,53.2159,325.0677,49.8267,310.2919,0.00036618,5.548e-05,0.0,0 STARLINK-3079,1 49433U 21104AB  23016.16242654  .00005548  00000-0  36618-3 0  9992,2 49433  53.2159 325.0677 0002212  49.8267 310.2919 15.08865847 66619,6917.801,95.436,541.197,538.136,0.0
49433.0,STARLINK-3079,PAYLOAD,2023-01-16 19:47:46,15.08827539,0.0001701,53.2144,322.0947,80.9584,279.16,-0.00013526,-2.439e-05,0.0,0 STARLINK-3079,1 49433U 21104AB  23016.82484197 -.00002439  00000-0 -13526-3 0  9996,2 49433  53.2144 322.0947 0001701  80.9584 279.1600 15.08827539 66717,6917.918000000001,95.438,540.96,538.607,0.0
49433.0,STARLINK-3079,PAYLOAD,2023-01-17 05:20:04,15.08855941,4.47e-05,53.2187,320.3083,165.7425,194.3579,0.00028665,4.279e-05,0.0,0 STARLINK-3079,1 49433U 21104AB  23017.22226924  .00004279  00000-0  28665-3 0  9995,2 49433  53.2187 320.3083 0000447 165.7425 194.3579 15.08855941 66775,6917.831999999999,95.437,540.006,539.387,0.0
49433.0,STARLINK-3079,PAYLOAD,2023-01-17 13:17:01,15.0883424,0.0001878,53.2149,318.8268,69.4645,290.6548,2.7614e-05,1.51e-06,0.0,0 STARLINK-3079,1 49433U 21104AB  23017.55348398  .00000151  00000-0  27614-4 0  9990,2 49433  53.2149 318.8268 0001878  69.4645 290.6548 15.08834240 66824,6917.898,95.438,541.062,538.464,0.0
49433.0,STARLINK-3079,PAYLOAD,2023-01-17 16:27:47,15.08817574,0.0001530999999999,53.2146,318.2315,76.4598,283.6564,-0.00026669,-4.527e-05,0.0,0 STARLINK-3079,1 49433U 21104AB  23017.68596982 -.00004527  00000-0 -26669-3 0  9999,2 49433  53.2146 318.2315 0001531  76.4598 283.6564 15.08817574 66842,6917.9490000000005,95.439,540.873,538.755,0.0
49433.0,STARLINK-3079,PAYLOAD,2023-01-18 00:24:43,15.08823428,0.0001428,53.2144,316.7429,85.0741,275.0414,-6.3424e-05,-1.297e-05,0.0,0 STARLINK-3079,1 49433U 21104AB  23018.01717141 -.00001297  00000-0 -63424-4 0  9991,2 49433  53.2144 316.7429 0001428  85.0741 275.0414 15.08823428 66899,6917.931,95.439,540.784,538.808,0.0
49433.0,STARLINK-3079,PAYLOAD,2023-01-18 13:07:48,15.08843491,0.0001358,53.2147,314.3634,87.1014,273.0133,0.00041648,6.347e-05,0.0,0 STARLINK-3079,1 49433U 21104AB  23018.54708712  .00006347  00000-0  41648-3 0  9995,2 49433  53.2147 314.3634 0001358  87.1014 273.0133 15.08843491 66979,6917.87,95.437,540.674,538.795,0.0
49433.0,STARLINK-3079,PAYLOAD,2023-01-18 14:43:11,15.08849295,0.0001415,53.2144,314.0662,86.4148,273.7006,0.00064504,9.995e-05,0.0,0 STARLINK-3079,1 49433U 21104AB  23018.61332886  .00009995  00000-0  64504-3 0  9996,2 49433  53.2144 314.0662 0001415  86.4148 273.7006 15.08849295 66983,6917.852,95.437,540.696,538.738,0.0
49433.0,STARLINK-3079,PAYLOAD,2023-01-18 21:04:43,15.08863717,0.0001338,53.2142,312.8767,87.4633,272.6512,0.0011485,0.00018049,0.0,0 STARLINK-3079,1 49433U 21104AB  23018.87828601  .00018049  00000-0  11485-2 0  9998,2 49433  53.2142 312.8767 0001338  87.4633 272.6512 15.08863717 67028,6917.808000000001,95.436,540.5980000000001,538.747,0.0
49433.0,STARLINK-3079,PAYLOAD,2023-01-19 01:50:52,15.08886741,0.0001303,53.2145,311.9847,89.9805,270.1336,0.002102,0.00033367,0.0,0 STARLINK-3079,1 49433U 21104AB  23019.07700104  .00033367  00000-0  21020-2 0  9994,2 49433  53.2145 311.9847 0001303  89.9805 270.1336 15.08886741 67052,6917.738,95.435,540.504,538.701,0.0
49433.0,STARLINK-3079,PAYLOAD,2023-01-19 19:20:08,15.088158900000002,0.0001992,53.2146,308.7134,8.9792,351.1235,0.00061461,9.501e-05,0.0,0 STARLINK-3079,1 49433U 21104AB  23019.80565035  .00009501  00000-0  61461-3 0  9994,2 49433  53.2146 308.7134 0001992   8.9792 351.1235 15.08815890 67163,6917.954000000001,95.439,541.197,538.441,0.0
49433.0,STARLINK-3079,PAYLOAD,2023-01-20 04:52:27,15.08828886,0.0001574,53.2147,306.93,57.9039,302.2106,0.0019854,0.00031441,0.0,0 STARLINK-3079,1 49433U 21104AB  23020.20309334  .00031441  00000-0  19854-2 0  9994,2 49433  53.2147 306.9300 0001574  57.9039 302.2106 15.08828886 67223,6917.914000000001,95.438,540.868,538.69,0.0
49433.0,STARLINK-3079,PAYLOAD,2023-01-20 22:21:42,15.08845297,0.0001878,53.2138,303.6569,73.1294,286.9904,0.0012412,0.00019524,0.0,0 STARLINK-3079,1 49433U 21104AB  23020.93173865  .00019524  00000-0  12412-2 0  9993,2 49433  53.2138 303.6569 0001878  73.1294 286.9904 15.08845297 67335,6917.8640000000005,95.437,541.028,538.43,0.0
49433.0,STARLINK-3079,PAYLOAD,2023-01-22 04:34:00,15.0888111,0.0001848,53.2152,298.0076,69.3163,290.8027,0.0022355,0.0003551,0.0,0 STARLINK-3079,1 49433U 21104AB  23022.19028871  .00035510  00000-0  22355-2 0  9999,2 49433  53.2152 298.0076 0001848  69.3163 290.8027 15.08881110 67525,6917.755,95.435,540.898,538.341,0.0
49433.0,STARLINK-3079,PAYLOAD,2023-01-22 10:55:35,15.08839614,0.0007019999999999,53.2145,296.8177,70.9798,289.1954,0.0012136,0.00019087,0.0,0 STARLINK-3079,1 49433U 21104AB  23022.45526997  .00019087  00000-0  12136-2 0  9997,2 49433  53.2145 296.8177 0007020  70.9798 289.1954 15.08839614 67561,6917.882,95.438,544.6030000000001,534.89,0.0
49433.0,STARLINK-3079,PAYLOAD,2023-01-22 22:00:00,15.08925985,0.0001190999999999,53.2143,294.748,70.5713,277.2662,-0.0070587,-0.00111157,0.0,0 STARLINK-3079,1 49433U 21104AB  23022.91667824 -.00111157  00000-0 -70587-2 0  9990,2 49433  53.2143 294.7480 0001191  70.5713 277.2662 15.08925985 67627,6917.618,95.432,540.306,538.659,0.0
49433.0,STARLINK-3079,PAYLOAD,2023-01-23 14:00:01,15.0878646,0.0001159,53.2134,291.7541,90.0186,281.0408,0.004824,0.00077214,0.0,0 STARLINK-3079,1 49433U 21104AB  23023.58334491  .00077214  00000-0  48240-2 0  9999,2 49433  53.2134 291.7541 0001159  90.0186 281.0408 15.08786460 67733,6918.044,95.441,540.711,539.107,0.0
49433.0,STARLINK-3079,PAYLOAD,2023-01-24 04:15:35,15.08851342,0.0001239,53.2139,289.0869,79.6823,280.4309,0.0021146999999999,0.00033538,0.0,0 STARLINK-3079,1 49433U 21104AB  23024.17749500  .00033538  00000-0  21147-2 0  9994,2 49433  53.2139 289.0869 0001239  79.6823 280.4309 15.08851342 67826,6917.846,95.437,540.568,538.854,0.0
49433.0,STARLINK-3079,PAYLOAD,2023-01-25 02:30:59,15.08851157,0.0001369,53.2131,284.9206,87.5639,272.551,0.00084777,0.00013234,0.0,0 STARLINK-3079,1 49433U 21104AB  23025.10485743  .00013234  00000-0  84777-3 0  9994,2 49433  53.2131 284.9206 0001369  87.5639 272.5510 15.08851157 67969,6917.846,95.437,540.658,538.764,0.0
49433.0,STARLINK-3079,PAYLOAD,2023-01-25 10:27:55,15.08837134,0.0001274999999999,53.2134,283.4331,101.8843,258.2292,0.00046008,7.041e-05,0.0,0 STARLINK-3079,1 49433U 21104AB  23025.43605627  .00007041  00000-0  46008-3 0  9999,2 49433  53.2134 283.4331 0001275 101.8843 258.2292 15.08837134 68012,6917.889,95.438,540.636,538.872,0.0
49433.0,STARLINK-3079,PAYLOAD,2023-01-26 02:21:46,15.08848263,0.0001438,53.2129,280.4606,96.1986,263.91700000000003,0.00077943,0.00012141,0.0,0 STARLINK-3079,1 49433U 21104AB  23026.09845812  .00012141  00000-0  77943-3 0  9993,2 49433  53.2129 280.4606 0001438  96.1986 263.9170 15.08848263 68117,6917.855,95.437,540.715,538.725,0.0
49433.0,STARLINK-3079,PAYLOAD,2023-01-26 23:01:47,15.08847271,0.0001434,53.2139,276.5937,87.5309,272.5847,0.00025123,3.713e-05,0.0,0 STARLINK-3079,1 49433U 21104AB  23026.95957734  .00003713  00000-0  25123-3 0  9993,2 49433  53.2139 276.5937 0001434  87.5309 272.5847 15.08847271 68249,6917.858,95.437,540.715,538.731,0.0
49433.0,STARLINK-3079,PAYLOAD,2023-01-27 02:12:33,15.08851098,0.0001463,53.2134,275.9993,86.645,273.4709,0.0003498999999999,5.287e-05,0.0,0 STARLINK-3079,1 49433U 21104AB  23027.09205607  .00005287  00000-0  34990-3 0  9994,2 49433  53.2134 275.9993 0001463  86.6450 273.4709 15.08851098 68269,6917.846,95.437,540.724,538.6990000000001,0.0
49433.0,STARLINK-3079,PAYLOAD,2023-01-27 19:41:48,15.08840276,0.0001324,53.2129,272.7279,80.3521,279.7621,0.00015287,2.146e-05,0.0,0 STARLINK-3079,1 49433U 21104AB  23027.82070140  .00002146  00000-0  15287-3 0  9996,2 49433  53.2129 272.7279 0001324  80.3521 279.7621 15.08840276 68371,6917.88,95.438,540.66,538.8290000000001,0.0
49433.0,STARLINK-3079,PAYLOAD,2023-01-27 21:17:11,15.0884013,0.000143,53.2132,272.4292,89.1392,270.9764,0.00014394,2.004e-05,0.0,0 STARLINK-3079,1 49433U 21104AB  23027.88694044  .00002004  00000-0  14394-3 0  9998,2 49433  53.2132 272.4292 0001430  89.1392 270.9764 15.08840130 68389,6917.88,95.438,540.734,538.756,0.0
49433.0,STARLINK-3079,PAYLOAD,2023-01-28 02:03:21,15.08835209,0.0001551,53.2134,271.5384,84.7718,275.3451,0.00030533,4.574e-05,0.0,0 STARLINK-3079,1 49433U 21104AB  23028.08566484  .00004574  00000-0  30533-3 0  9994,2 49433  53.2134 271.5384 0001551  84.7718 275.3451 15.08835209 68417,6917.895,95.438,540.833,538.687,0.0
49433.0,STARLINK-3079,PAYLOAD,2023-01-28 22:43:21,15.08845132,0.0001283,53.2129,267.6738,85.7246,274.3893,0.00018125,2.598e-05,0.0,0 STARLINK-3079,1 49433U 21104AB  23028.94677963  .00002598  00000-0  18125-3 0  9991,2 49433  53.2129 267.6738 0001283  85.7246 274.3893 15.08845132 68548,6917.865,95.437,540.617,538.842,0.0
